[{"OBJECT_NAME":"ATLAS CENTAUR 2","OBJECT_ID":"1963-047A","EPOCH":"2026-04-05T04:43:10.730208","MEAN_MOTION":14.12193893,"ECCENTRICITY":0.05470509,"INCLINATION":30.3577,"RA_OF_ASC_NODE":47.495,"ARG_OF_PERICENTER":313.9039,"MEAN_ANOMALY":41.7621,"EPHEMERIS_TYPE":0,"CLASSIFICATION_TYPE":"U","NORAD_CAT_ID":694,"ELEMENT_SET_NO":999,"REV_AT_EPOCH":13537,"BSTAR":0.00046597993,"MEAN_MOTION_DOT":3.907e-5,"MEAN_MOTION_DDOT":0},{"OBJECT_NAME":"THOR AGENA D R/B","OBJECT_ID":"1964-002A","EPOCH":"2026-04-05T07:33:42.009984","MEAN_MOTION":14.34035119,"ECCENTRICITY":0.00329463,"INCLINATION":99.1208,"RA_OF_ASC_NODE":110.1029,"ARG_OF_PERICENTER":179.2452,"MEAN_ANOMALY":180.8786,"EPHEMERIS_TYPE":0,"CLASSIFICATION_TYPE":"U","NORAD_CAT_ID":733,"ELEMENT_SET_NO":999,"REV_AT_EPOCH":24211,"BSTAR":0.0001139629,"MEAN_MOTION_DOT":2.72e-6,"MEAN_MOTION_DDOT":0},{"OBJECT_NAME":"SL-3 R/B","OBJECT_ID":"1964-053B","EPOCH":"2026-04-05T04:13:04.415520","MEAN_MOTION":14.61388218,"ECCENTRICITY":0.00806395,"INCLINATION":65.0759,"RA_OF_ASC_NODE":253.5814,"ARG_OF_PERICENTER":283.9022,"MEAN_ANOMALY":75.3118,"EPHEMERIS_TYPE":0,"CLASSIFICATION_TYPE":"U","NORAD_CAT_ID":877,"ELEMENT_SET_NO":999,"REV_AT_EPOCH":27066,"BSTAR":9.7079517e-5,"MEAN_MOTION_DOT":3.78e-6,"MEAN_MOTION_DDOT":0},{"OBJECT_NAME":"SL-8 R/B","OBJECT_ID":"1967-045B","EPOCH":"2026-04-05T06:53:02.213952","MEAN_MOTION":14.45644042,"ECCENTRICITY":0.00650711,"INCLINATION":74.01,"RA_OF_ASC_NODE":298.417,"ARG_OF_PERICENTER":298.8768,"MEAN_ANOMALY":60.587,"EPHEMERIS_TYPE":0,"CLASSIFICATION_TYPE":"U","NORAD_CAT_ID":2802,"ELEMENT_SET_NO":999,"REV_AT_EPOCH":9286,"BSTAR":0.00011387464,"MEAN_MOTION_DOT":3.84e-6,"MEAN_MOTION_DDOT":0},{"OBJECT_NAME":"SL-8 R/B","OBJECT_ID":"1968-040B","EPOCH":"2026-04-04T20:42:05.448384","MEAN_MOTION":15.03452818,"ECCENTRICITY":0.00232657,"INCLINATION":74.0298,"RA_OF_ASC_NODE":260.2016,"ARG_OF_PERICENTER":73.2164,"MEAN_ANOMALY":287.1575,"EPHEMERIS_TYPE":0,"CLASSIFICATION_TYPE":"U","NORAD_CAT_ID":3230,"ELEMENT_SET_NO":999,"REV_AT_EPOCH":9394,"BSTAR":0.00037810472,"MEAN_MOTION_DOT":5.141e-5,"MEAN_MOTION_DDOT":0},{"OBJECT_NAME":"OAO 2","OBJECT_ID":"1968-110A","EPOCH":"2026-04-04T10:42:42.953472","MEAN_MOTION":14.47323404,"ECCENTRICITY":0.00051825,"INCLINATION":34.9923,"RA_OF_ASC_NODE":121.4125,"ARG_OF_PERICENTER":39.6929,"MEAN_ANOMALY":320.414,"EPHEMERIS_TYPE":0,"CLASSIFICATION_TYPE":"U","NORAD_CAT_ID":3597,"ELEMENT_SET_NO":999,"REV_AT_EPOCH":2283,"BSTAR":0.00010337347,"MEAN_MOTION_DOT":3.65e-6,"MEAN_MOTION_DDOT":0},{"OBJECT_NAME":"ISIS 1","OBJECT_ID":"1969-009A","EPOCH":"2026-04-05T04:20:54.595680","MEAN_MOTION":11.30421381,"ECCENTRICITY":0.17077556,"INCLINATION":88.449,"RA_OF_ASC_NODE":152.4158,"ARG_OF_PERICENTER":35.7205,"MEAN_ANOMALY":334.6817,"EPHEMERIS_TYPE":0,"CLASSIFICATION_TYPE":"U","NORAD_CAT_ID":3669,"ELEMENT_SET_NO":999,"REV_AT_EPOCH":35152,"BSTAR":0.00011747013,"MEAN_MOTION_DOT":1.81e-6,"MEAN_MOTION_DDOT":0},{"OBJECT_NAME":"SERT 2","OBJECT_ID":"1970-009A","EPOCH":"2026-04-05T02:57:52.972992","MEAN_MOTION":13.58732818,"ECCENTRICITY":0.00057594,"INCLINATION":99.2795,"RA_OF_ASC_NODE":36.7757,"ARG_OF_PERICENTER":95.6713,"MEAN_ANOMALY":274.1412,"EPHEMERIS_TYPE":0,"CLASSIFICATION_TYPE":"U","NORAD_CAT_ID":4327,"ELEMENT_SET_NO":999,"REV_AT_EPOCH":78348,"BSTAR":0.00013658529,"MEAN_MOTION_DOT":5.9e-7,"MEAN_MOTION_DDOT":0},{"OBJECT_NAME":"SL-3 R/B","OBJECT_ID":"1971-028B","EPOCH":"2026-04-05T05:40:24.191040","MEAN_MOTION":15.63680232,"ECCENTRICITY":0.00155193,"INCLINATION":81.2384,"RA_OF_ASC_NODE":19.1879,"ARG_OF_PERICENTER":178.4033,"MEAN_ANOMALY":181.7274,"EPHEMERIS_TYPE":0,"CLASSIFICATION_TYPE":"U","NORAD_CAT_ID":5118,"ELEMENT_SET_NO":999,"REV_AT_EPOCH":99281,"BSTAR":0.00056945323,"MEAN_MOTION_DOT":0.00053603,"MEAN_MOTION_DDOT":0},{"OBJECT_NAME":"ASTEX 1","OBJECT_ID":"1971-089A","EPOCH":"2026-04-05T04:04:40.258560","MEAN_MOTION":14.50798837,"ECCENTRICITY":0.00154394,"INCLINATION":92.7081,"RA_OF_ASC_NODE":160.3167,"ARG_OF_PERICENTER":3.9738,"MEAN_ANOMALY":356.1588,"EPHEMERIS_TYPE":0,"CLASSIFICATION_TYPE":"U","NORAD_CAT_ID":5560,"ELEMENT_SET_NO":999,"REV_AT_EPOCH":86614,"BSTAR":0.00017341848,"MEAN_MOTION_DOT":6.82e-6,"MEAN_MOTION_DDOT":0},{"OBJECT_NAME":"SL-8 R/B","OBJECT_ID":"1971-119B","EPOCH":"2026-04-05T03:52:16.898016","MEAN_MOTION":14.38364494,"ECCENTRICITY":0.05458757,"INCLINATION":73.8839,"RA_OF_ASC_NODE":126.2202,"ARG_OF_PERICENTER":87.2389,"MEAN_ANOMALY":279.1087,"EPHEMERIS_TYPE":0,"CLASSIFICATION_TYPE":"U","NORAD_CAT_ID":5730,"ELEMENT_SET_NO":999,"REV_AT_EPOCH":65929,"BSTAR":0.0004213393,"MEAN_MOTION_DOT":8.053e-5,"MEAN_MOTION_DDOT":0},{"OBJECT_NAME":"OAO 3 (COPERNICUS)","OBJECT_ID":"1972-065A","EPOCH":"2026-04-05T03:00:30.011040","MEAN_MOTION":14.60020122,"ECCENTRICITY":0.0006514,"INCLINATION":35.0046,"RA_OF_ASC_NODE":146.696,"ARG_OF_PERICENTER":11.798,"MEAN_ANOMALY":8.3139,"EPHEMERIS_TYPE":0,"CLASSIFICATION_TYPE":"U","NORAD_CAT_ID":6153,"ELEMENT_SET_NO":999,"REV_AT_EPOCH":85006,"BSTAR":9.1404801e-5,"MEAN_MOTION_DOT":4.24e-6,"MEAN_MOTION_DDOT":0},{"OBJECT_NAME":"ATLAS CENTAUR R/B","OBJECT_ID":"1972-065B","EPOCH":"2026-04-05T05:54:42.318432","MEAN_MOTION":14.77768132,"ECCENTRICITY":0.0034026,"INCLINATION":35.0006,"RA_OF_ASC_NODE":150.1104,"ARG_OF_PERICENTER":234.4237,"MEAN_ANOMALY":125.329,"EPHEMERIS_TYPE":0,"CLASSIFICATION_TYPE":"U","NORAD_CAT_ID":6155,"ELEMENT_SET_NO":999,"REV_AT_EPOCH":84519,"BSTAR":0.00023376573,"MEAN_MOTION_DOT":1.699e-5,"MEAN_MOTION_DDOT":0},{"OBJECT_NAME":"SL-8 R/B","OBJECT_ID":"1975-112B","EPOCH":"2026-04-05T01:47:23.433792","MEAN_MOTION":14.38219672,"ECCENTRICITY":0.00147151,"INCLINATION":74.062,"RA_OF_ASC_NODE":330.3794,"ARG_OF_PERICENTER":52.9529,"MEAN_ANOMALY":307.2969,"EPHEMERIS_TYPE":0,"CLASSIFICATION_TYPE":"U","NORAD_CAT_ID":8459,"ELEMENT_SET_NO":999,"REV_AT_EPOCH":63566,"BSTAR":0.0001120289,"MEAN_MOTION_DOT":3.15e-6,"MEAN_MOTION_DDOT":0},{"OBJECT_NAME":"SL-3 R/B","OBJECT_ID":"1977-057B","EPOCH":"2026-04-05T06:12:07.728192","MEAN_MOTION":15.46306361,"ECCENTRICITY":0.00072814,"INCLINATION":97.5806,"RA_OF_ASC_NODE":268.3694,"ARG_OF_PERICENTER":177.9658,"MEAN_ANOMALY":182.1622,"EPHEMERIS_TYPE":0,"CLASSIFICATION_TYPE":"U","NORAD_CAT_ID":10114,"ELEMENT_SET_NO":999,"REV_AT_EPOCH":67243,"BSTAR":0.00033280034,"MEAN_MOTION_DOT":0.00016338,"MEAN_MOTION_DDOT":0},{"OBJECT_NAME":"SEASAT 1","OBJECT_ID":"1978-064A","EPOCH":"2026-04-05T04:42:47.975040","MEAN_MOTION":14.46184646,"ECCENTRICITY":0.00027333,"INCLINATION":108.0067,"RA_OF_ASC_NODE":181.1152,"ARG_OF_PERICENTER":272.2031,"MEAN_ANOMALY":87.8802,"EPHEMERIS_TYPE":0,"CLASSIFICATION_TYPE":"U","NORAD_CAT_ID":10967,"ELEMENT_SET_NO":999,"REV_AT_EPOCH":51034,"BSTAR":0.00017178851,"MEAN_MOTION_DOT":4.78e-6,"MEAN_MOTION_DDOT":0},{"OBJECT_NAME":"SL-14 R/B","OBJECT_ID":"1979-011B","EPOCH":"2026-04-05T00:08:13.346592","MEAN_MOTION":14.91946028,"ECCENTRICITY":0.00152889,"INCLINATION":82.5221,"RA_OF_ASC_NODE":71.5917,"ARG_OF_PERICENTER":335.0584,"MEAN_ANOMALY":24.9895,"EPHEMERIS_TYPE":0,"CLASSIFICATION_TYPE":"U","NORAD_CAT_ID":11267,"ELEMENT_SET_NO":999,"REV_AT_EPOCH":53270,"BSTAR":8.5966435e-5,"MEAN_MOTION_DOT":8.97e-6,"MEAN_MOTION_DDOT":0}]
