ATLAS CENTAUR 2         
1 00694U 63047A   26095.19665197  .00003907  00000+0  46598-3 0  9998
2 00694  30.3577  47.4950 0547050 313.9039  41.7621 14.12193893135375
THOR AGENA D R/B        
1 00733U 64002A   26095.31506956  .00000272  00000+0  11396-3 0  9995
2 00733  99.1208 110.1029 0032946 179.2452 180.8786 14.34035119242111
SL-3 R/B                
1 00877U 64053B   26095.17574555  .00000378  00000+0  97080-4 0  9996
2 00877  65.0759 253.5814 0080639 283.9022  75.3118 14.61388218270664
SL-8 R/B                
1 02802U 67045B   26095.28683118  .00000384  00000+0  11387-3 0  9990
2 02802  74.0100 298.4170 0065071 298.8768  60.5870 14.45644042 92869
SL-8 R/B                
1 03230U 68040B   26094.86256306  .00005141  00000+0  37810-3 0  9995
2 03230  74.0298 260.2016 0023265  73.2164 287.1575 15.03452818 93945
OAO 2                   
1 03597U 68110A   26094.44633048  .00000365  00000+0  10337-3 0  9993
2 03597  34.9923 121.4125 0005182  39.6929 320.4140 14.47323404 22837
ISIS 1                  
1 03669U 69009A   26095.18118745  .00000181  00000+0  11747-3 0  9997
2 03669  88.4490 152.4158 1707755  35.7205 334.6817 11.30421381351521
SERT 2                  
1 04327U 70009A   26095.12352978  .00000059  00000+0  13659-3 0  9991
2 04327  99.2795  36.7757 0005759  95.6713 274.1412 13.58732818783488
SL-3 R/B                
1 05118U 71028B   26095.23639110  .00053603  00000+0  56945-3 0  9998
2 05118  81.2384  19.1879 0015519 178.4033 181.7274 15.63680232992810
ASTEX 1                 
1 05560U 71089A   26095.16991040  .00000682  00000+0  17342-3 0  9998
2 05560  92.7081 160.3167 0015439   3.9738 356.1588 14.50798837866144
SL-8 R/B                
1 05730U 71119B   26095.16130669  .00008053  00000+0  42134-3 0  9990
2 05730  73.8839 126.2202 0545875  87.2389 279.1087 14.38364494659292
OAO 3 (COPERNICUS)      
1 06153U 72065A   26095.12534735  .00000424  00000+0  91405-4 0  9999
2 06153  35.0046 146.6960 0006514  11.7980   8.3139 14.60020122850060
ATLAS CENTAUR R/B       
1 06155U 72065B   26095.24632313  .00001699  00000+0  23377-3 0  9992
2 06155  35.0006 150.1104 0034026 234.4237 125.3290 14.77768132845190
SL-8 R/B                
1 08459U 75112B   26095.07457678  .00000315  00000+0  11203-3 0  9996
2 08459  74.0620 330.3794 0014715  52.9529 307.2969 14.38219672635661
SL-3 R/B                
1 10114U 77057B   26095.25842278  .00016338  00000+0  33280-3 0  9992
2 10114  97.5806 268.3694 0007281 177.9658 182.1622 15.46306361672432
SEASAT 1                
1 10967U 78064A   26095.19638860  .00000478  00000+0  17179-3 0  9997
2 10967 108.0067 181.1152 0002733 272.2031  87.8802 14.46184646510348
SL-14 R/B               
1 11267U 79011B   26095.00571003  .00000897  00000+0  85966-4 0  9994
2 11267  82.5221  71.5917 0015288 335.0584  24.9895 14.91946028532709
